H1 CPF 01  gfz 2022 10 30 00  8031 tandemx   
H2 1003001  6202 36605    2022 10 30 00 59 42 2022 11 04 00 00 42   120 1 1  0 0 0
H9
10 0 59883  49662.000000  0    2152388.097   5396963.109  -3709415.600
10 0 59883  49782.000000  0    2492521.130   5725102.182  -2919140.875
10 0 59883  49902.000000  0    2794034.689   5947846.598  -2077631.767
10 0 59883  50022.000000  0    3049755.313   6061955.268  -1199624.937
10 0 59883  50142.000000  0    3253267.748   6066210.085   -300528.878
10 0 59883  50262.000000  0    3399067.453   5961430.668    603852.093
10 0 59883  50382.000000  0    3482696.353   5750447.905   1497602.579
10 0 59883  50502.000000  0    3500858.934   5438037.910   2364983.976
10 0 59883  50622.000000  0    3451514.235   5030817.356   3190720.385
10 0 59883  50742.000000  0    3333942.387   4537100.520   3960275.603
10 0 59883  50862.000000  0    3148784.547   3966724.704   4660113.383
10 0 59883  50982.000000  0    2898051.642   3330847.568   5277940.188
10 0 59883  51102.000000  0    2585104.271   2641720.140   5802918.441
10 0 59883  51222.000000  0    2214608.344   1912445.468   6225851.702
10 0 59883  51342.000000  0    1792464.075   1156724.772   6539341.598
10 0 59883  51462.000000  0    1325708.964    388596.477   6737910.505
10 0 59883  51582.000000  0     822398.536   -377824.121   6818090.797
10 0 59883  51702.000000  0     291466.885  -1128603.535   6778483.190
10 0 59883  51822.000000  0    -257432.237  -1850243.756   6619779.740
10 0 59883  51942.000000  0    -814101.052  -2529924.865   6344751.969
10 0 59883  52062.000000  0   -1367986.261  -3155733.146   5958203.923
10 0 59883  52182.000000  0   -1908376.241  -3716870.568   5466892.960
10 0 59883  52302.000000  0   -2424607.752  -4203844.703   4879419.783
10 0 59883  52422.000000  0   -2906278.888  -4608635.806   4206085.020
10 0 59883  52542.000000  0   -3343462.031  -4924835.806   3458712.383
10 0 59883  52662.000000  0   -3726910.528  -5147755.870   2650441.822
10 0 59883  52782.000000  0   -4048254.937  -5274500.470   1795497.770
10 0 59883  52902.000000  0   -4300186.111  -5304006.372    908935.201
10 0 59883  53022.000000  0   -4476619.265  -5237044.194      6368.197
10 0 59883  53142.000000  0   -4572834.990  -5076183.048   -896312.986
10 0 59883  53262.000000  0   -4585593.170  -4825718.545  -1783231.341
10 0 59883  53382.000000  0   -4513215.981  -4491565.045  -2638811.496
10 0 59883  53502.000000  0   -4355638.485  -4081115.898  -3448059.382
10 0 59883  53622.000000  0   -4114426.292  -3603076.842  -4196827.402
10 0 59883  53742.000000  0   -3792760.869  -3067277.247  -4872060.593
10 0 59883  53862.000000  0   -3395393.232  -2484463.322  -5462019.701
10 0 59883  53982.000000  0   -2928567.587  -1866079.026  -5956476.977
10 0 59883  54102.000000  0   -2399917.899  -1224039.635  -6346883.575
10 0 59883  54222.000000  0   -1818338.297   -570502.004  -6626506.438
10 0 59883  54342.000000  0   -1193830.803     82363.351  -6790532.205
10 0 59883  54462.000000  0    -537335.053    722593.608  -6836139.876
10 0 59883  54582.000000  0     139459.518   1338647.156  -6762544.339
10 0 59883  54702.000000  0     824315.798   1919605.761  -6571008.455
10 0 59883  54822.000000  0    1504665.150   2455364.131  -6264826.134
10 0 59883  54942.000000  0    2167833.576   2936803.717  -5849271.503
10 0 59883  55062.000000  0    2801274.116   3355948.020  -5331516.877
10 0 59883  55182.000000  0    3392801.587   3706096.078  -4720519.886
10 0 59883  55302.000000  0    3930827.550   3981934.451  -4026880.585
10 0 59883  55422.000000  0    4404590.705   4179623.448  -3262667.539
10 0 59883  55542.000000  0    4804377.385   4296855.336  -2441214.578
10 0 59883  55662.000000  0    5121725.683   4332882.351  -1576891.696
10 0 59883  55782.000000  0    5349609.897   4288514.049   -684853.656
10 0 59883  55902.000000  0    5482598.401   4166083.047    219229.514
10 0 59883  56022.000000  0    5516981.918   3969380.506   1119453.419
10 0 59883  56142.000000  0    5450869.183   3703561.128   1999967.272
10 0 59883  56262.000000  0    5284245.708   3375019.715   2845262.133
10 0 59883  56382.000000  0    5018993.235   2991243.909   3640452.772
10 0 59883  56502.000000  0    4658870.494   2560645.793   4371546.577
10 0 59883  56622.000000  0    4209456.017   2092376.398   5025691.756
10 0 59883  56742.000000  0    3678056.997   1596131.530   5591404.433
10 0 59883  56862.000000  0    3073581.395   1081949.158   6058768.927
10 0 59883  56982.000000  0    2406381.009    560004.200   6419604.982
10 0 59883  57102.000000  0    1688069.608     40407.842   6667603.459
10 0 59883  57222.000000  0     931318.408   -466986.994   6798432.410
10 0 59883  57342.000000  0     149630.061   -952772.449   6809809.008
10 0 59883  57462.000000  0    -642902.926  -1408159.613   6701535.883
10 0 59883  57582.000000  0   -1431851.856  -1825137.481   6475503.584
10 0 59883  57702.000000  0   -2202712.977  -2196613.617   6135658.113
10 0 59883  57822.000000  0   -2941171.901  -2516534.467   5687937.606
10 0 59883  57942.000000  0   -3633372.049  -2779986.762   5140177.338
10 0 59883  58062.000000  0   -4266180.070  -2983275.564   4501977.270
10 0 59883  58182.000000  0   -4827440.099  -3123976.794   3784537.603
10 0 59883  58302.000000  0   -5306213.344  -3200963.365   3000465.281
10 0 59883  58422.000000  0   -5692998.620  -3214405.295   2163554.229
10 0 59883  58542.000000  0   -5979928.882  -3165743.712   1288540.346
10 0 59883  58662.000000  0   -6160936.550  -3057637.489    390835.667
10 0 59883  58782.000000  0   -6231883.797  -2893883.789   -513750.453
10 0 59883  58902.000000  0   -6190655.335  -2679315.706  -1409299.079
10 0 59883  59022.000000  0   -6037208.586  -2419677.909  -2280071.835
10 0 59883  59142.000000  0   -5773581.223  -2121485.044  -3110794.078
10 0 59883  59262.000000  0   -5403858.195  -1791866.914  -3886926.883
10 0 59883  59382.000000  0   -4934098.352  -1438404.076  -4594922.069
10 0 59883  59502.000000  0   -4372224.234  -1068958.295  -5222455.773
10 0 59883  59622.000000  0   -3727876.982   -691501.361  -5758636.852
10 0 59883  59742.000000  0   -3012241.004   -313946.827  -6194185.951
10 0 59883  59862.000000  0   -2237843.419     56011.840  -6521584.345
10 0 59883  59982.000000  0   -1418331.674    411053.117  -6735192.168
10 0 59883  60102.000000  0    -568233.903    744366.927  -6831334.813
10 0 59883  60222.000000  0     297293.689   1049781.573  -6808358.616
10 0 59883  60342.000000  0    1162729.331   1321874.069  -6666656.379
10 0 59883  60462.000000  0    2012457.951   1556064.276  -6408664.001
10 0 59883  60582.000000  0    2831047.580   1748691.595  -6038822.966
10 0 59883  60702.000000  0    3603525.728   1897071.712  -5563510.999
10 0 59883  60822.000000  0    4315650.484   1999533.186  -4990942.522
10 0 59883  60942.000000  0    4954175.468   2055434.167  -4331038.904
10 0 59883  61062.000000  0    5507102.013   2065157.704  -3595266.510
10 0 59883  61182.000000  0    5963912.333   2030085.374  -2796446.186
10 0 59883  61302.000000  0    6315780.634   1952550.059  -1948536.409
10 0 59883  61422.000000  0    6555755.350   1835768.463  -1066390.417
10 0 59883  61542.000000  0    6678906.799   1683753.788   -165493.887
10 0 59883  61662.000000  0    6682436.063   1501210.590    738313.383
10 0 59883  61782.000000  0    6565740.440   1293415.271   1629122.389
10 0 59883  61902.000000  0    6330438.351   1066084.587   2491243.662
10 0 59883  62022.000000  0    5980346.567    825234.548   3309493.156
10 0 59883  62142.000000  0    5521413.953    577034.989   4069466.870
10 0 59883  62262.000000  0    4961611.239    327662.613   4757798.853
10 0 59883  62382.000000  0    4310784.093     83157.637   5362397.264
10 0 59883  62502.000000  0    3580469.553   -150714.989   5872656.723
10 0 59883  62622.000000  0    2783681.365   -368594.080   6279639.230
10 0 59883  62742.000000  0    1934671.799   -565638.527   6576224.774
10 0 59883  62862.000000  0    1048672.632   -737630.205   6757230.818
10 0 59883  62982.000000  0     141618.280   -881061.409   6819498.042
10 0 59883  63102.000000  0    -770141.627   -993204.545   6761940.725
10 0 59883  63222.000000  0   -1670135.978  -1072163.873   6585563.696
10 0 59883  63342.000000  0   -2542068.208  -1116907.421   6293445.135
10 0 59883  63462.000000  0   -3370109.717  -1127278.904   5890686.893
10 0 59883  63582.000000  0   -4139189.579  -1103990.187   5384332.794
10 0 59883  63702.000000  0   -4835274.360  -1048595.049   4783251.814
10 0 59883  63822.000000  0   -5445631.665   -963443.149   4097987.593
10 0 59883  63942.000000  0   -5959071.332   -851615.381   3340576.387
10 0 59883  64062.000000  0   -6366159.056   -716841.922   2524337.635
10 0 59883  64182.000000  0   -6659400.527   -563404.831   1663639.999
10 0 59883  64302.000000  0   -6833389.391   -396027.248    773643.337
10 0 59883  64422.000000  0   -6884912.646   -219752.425   -129976.022
10 0 59883  64542.000000  0   -6813012.323    -39814.954  -1031310.172
10 0 59883  64662.000000  0   -6619000.934    138492.354  -1914508.938
10 0 59883  64782.000000  0   -6306431.769    309951.726  -2764065.028
10 0 59883  64902.000000  0   -5881026.523    469551.174  -3565093.041
10 0 59883  65022.000000  0   -5350557.478    612609.764  -4303593.842
10 0 59883  65142.000000  0   -4724692.256    734893.498  -4966697.557
10 0 59883  65262.000000  0   -4014804.493    832719.272  -5542882.349
10 0 59883  65382.000000  0   -3233756.607    903044.812  -6022165.678
10 0 59883  65502.000000  0   -2395659.084    943542.257  -6396265.922
10 0 59883  65622.000000  0   -1515612.879    952655.359  -6658733.735
10 0 59883  65742.000000  0    -609437.263    929639.614  -6805052.343
10 0 59883  65862.000000  0     306609.764    874583.684  -6832705.282
10 0 59883  65982.000000  0    1216114.722    788412.613  -6741215.742
10 0 59883  66102.000000  0    2102796.618    672872.480  -6532156.224
99
